OBJECT_NAME,OBJECT_ID,EPOCH,MEAN_MOTION,ECCENTRICITY,INCLINATION,RA_OF_ASC_NODE,ARG_OF_PERICENTER,MEAN_ANOMALY,EPHEMERIS_TYPE,CLASSIFICATION_TYPE,NORAD_CAT_ID,ELEMENT_SET_NO,REV_AT_EPOCH,BSTAR,MEAN_MOTION_DOT,MEAN_MOTION_DDOT
DMSP 5D-3 F16 (USA 172),2003-048A,2026-07-12T20:30:21.151872,14.14484900,.0008122,98.9896,217.8517,76.9620,47.6127,0,U,28054,999,17311,-.98782E-6,-.47E-6,0
METEOSAT-9 (MSG-2),2005-049B,2026-07-12T17:08:58.401312,1.00270809,.0002069,9.4169,53.9114,356.4879,183.1097,0,U,28912,999,725,0,.116E-5,0
DMSP 5D-3 F17 (USA 191),2006-050A,2026-07-12T20:06:31.267296,14.14996111,.0009855,98.7386,199.8837,349.7981,10.2991,0,U,29522,999,1605,.17325E-4,-.1E-6,0
FENGYUN 3A,2008-026A,2026-07-12T18:34:14.051136,14.19576150,.0009719,98.6887,134.1290,58.0752,302.1369,0,U,32958,999,93903,.23941E-4,.7E-7,0
GOES 14,2009-033A,2026-07-12T17:32:04.044768,1.00099292,.0001871,1.7530,82.7242,40.4456,197.0701,0,U,35491,999,684,0,-.358E-5,0
DMSP 5D-3 F18 (USA 210),2009-057A,2026-07-12T21:09:28.443744,14.14910734,.0011087,98.9054,174.5969,171.9641,188.1712,0,U,35951,999,86322,.1109E-3,.17E-5,0
EWS-G2 (GOES 15),2010-008A,2026-07-12T20:32:21.601248,1.00268267,.0005192,1.3454,82.4955,53.8075,165.8685,0,U,36411,999,5989,0,.2E-6,0
COMS 1,2010-032A,2026-07-12T09:57:37.507680,0.99168607,.00112508,4.8673,75.0515,14.7069,323.0598,0,U,36744,999,5133,0,-.249E-5,0
FENGYUN 3B,2010-059A,2026-07-12T21:59:34.403424,14.14847265,.0023093,98.9615,240.0379,112.7848,11.9301,0,U,37214,999,81106,.10245E-3,.153E-5,0
SUOMI NPP,2011-061A,2026-07-12T20:33:17.693856,14.19522337,.000065,98.7956,134.5579,228.5544,131.5576,0,U,37849,999,76208,.26468E-4,.11E-6,0
METEOSAT-10 (MSG-3),2012-035B,2026-07-12T18:38:41.968032,1.00270301,.000108,4.7299,60.8910,17.5629,131.9395,0,U,38552,999,5111,0,-.12E-6,0
METOP-B,2012-049A,2026-07-12T19:29:08.045088,14.21445959,.0001061,98.6491,244.7981,270.2000,89.9056,0,U,38771,999,71690,.43532E-4,.52E-6,0
INSAT-3D,2013-038B,2026-07-12T17:32:56.461056,1.00269581,.0000505,1.9893,82.2177,85.6004,155.5531,0,U,39216,999,4733,0,-.341E-5,0
FENGYUN 3C,2013-052A,2026-07-12T21:50:46.481280,14.15760479,.0013776,98.4996,166.6062,313.0045,46.9975,0,U,39260,999,66220,.35722E-4,.29E-6,0
METEOR-M 2,2014-037A,2026-07-12T21:47:55.793760,14.21469489,.0005281,98.5123,168.7372,334.3901,25.7015,0,U,40069,999,62297,.1064E-3,.191E-5,0
HIMAWARI-8,2014-060A,2026-07-12T19:18:42.120288,1.00272219,.0001044,0.0183,317.4854,212.1587,191.3878,0,U,40267,999,4301,0,-.276E-5,0
FENGYUN 2G,2014-090A,2026-07-12T21:31:00.742368,1.00261037,.0004369,5.7002,72.5005,152.6666,127.6317,0,U,40367,999,4225,0,-.304E-5,0
METEOSAT-11 (MSG-4),2015-034A,2026-07-12T19:11:38.812128,1.00271113,.0002232,3.2634,70.9493,353.3384,163.5584,0,U,40732,999,747,0,.58E-6,0
ELEKTRO-L 2,2015-074A,2026-07-12T10:01:14.661120,1.00272262,.00009352,6.7537,70.2096,216.0693,139.8337,0,U,41105,999,3875,0,-.122E-5,0
SENTINEL-3A,2016-011A,2026-07-12T19:32:06.596736,14.26739357,.0001371,98.6238,260.8281,90.9122,269.2216,0,U,41335,999,54171,.3588E-4,.43E-6,0
INSAT-3DR,2016-054A,2026-07-12T20:42:21.668256,1.00270666,.0010623,0.0638,88.7689,181.1963,45.3759,0,U,41752,999,3607,0,-.78E-6,0
HIMAWARI-9,2016-064A,2026-07-12T19:18:49.606848,1.00271255,.0002252,0.0065,112.0078,66.6987,182.4418,0,U,41836,999,3546,0,-.276E-5,0
GOES 16,2016-071A,2026-07-12T14:43:29.931168,1.00270869,.0000527,0.3971,85.4987,99.9836,221.2050,0,U,41866,999,3535,0,-.91E-6,0
FENGYUN 4A,2016-077A,2026-07-12T20:56:36.586752,1.00269406,.0008495,2.3842,79.9926,159.3753,129.3116,0,U,41882,999,3518,0,-.36E-5,0
CYGFM05,2016-078A,2026-07-12T19:44:35.683008,15.57780446,.0006365,34.9568,90.6899,13.4125,346.6768,0,U,41884,999,53275,.23697E-3,.18211E-3,0
CYGFM04,2016-078B,2026-07-12T18:35:34.391904,15.62974121,.0004519,34.9324,57.3697,56.6007,303.5151,0,U,41885,999,53300,.26629E-3,.2502E-3,0
CYGFM02,2016-078C,2026-07-12T18:54:51.369120,15.66232029,.0005196,34.9407,51.0341,60.8319,299.2927,0,U,41886,999,53318,.28871E-3,.30926E-3,0
CYGFM01,2016-078D,2026-07-12T19:11:47.421024,15.58495529,.0006473,34.9396,91.6862,6.8112,353.2699,0,U,41887,999,53270,.23968E-3,.18929E-3,0
CYGFM08,2016-078E,2026-07-12T18:40:09.670944,15.61358705,.0006522,34.9433,70.7131,42.9221,317.2013,0,U,41888,999,53297,.2508E-3,.22122E-3,0
CYGFM07,2016-078G,2026-07-12T19:10:59.748096,15.61470113,.0004883,34.9449,58.8897,57.1520,302.9675,0,U,41890,999,53300,.25311E-3,.22414E-3,0
CYGFM03,2016-078H,2026-07-12T20:01:32.966112,15.61458177,.0004853,34.9405,60.5851,41.0484,319.0607,0,U,41891,999,53298,.25489E-3,.22562E-3,0
