DMSP 5D-3 F16 (USA 172) 
1 28054U 03048A   26193.85441148 -.00000047  00000+0 -98782-6 0  9992
2 28054  98.9896 217.8517 0008122  76.9620  47.6127 14.14484900173119
METEOSAT-9 (MSG-2)      
1 28912U 05049B   26193.71456483  .00000116  00000+0  00000+0 0  9995
2 28912   9.4169  53.9114 0002069 356.4879 183.1097  1.00270809  7255
DMSP 5D-3 F17 (USA 191) 
1 29522U 06050A   26193.83786189 -.00000010  00000+0  17325-4 0  9995
2 29522  98.7386 199.8837 0009855 349.7981  10.2991 14.14996111 16057
FENGYUN 3A              
1 32958U 08026A   26193.77377374  .00000007  00000+0  23941-4 0  9998
2 32958  98.6887 134.1290 0009719  58.0752 302.1369 14.19576150939035
GOES 14                 
1 35491U 09033A   26193.73060237 -.00000358  00000+0  00000+0 0  9991
2 35491   1.7530  82.7242 0001871  40.4456 197.0701  1.00099292  6840
DMSP 5D-3 F18 (USA 210) 
1 35951U 09057A   26193.88157921  .00000170  00000+0  11090-3 0  9997
2 35951  98.9054 174.5969 0011087 171.9641 188.1712 14.14910734863220
EWS-G2 (GOES 15)        
1 36411U 10008A   26193.85580557  .00000020  00000+0  00000+0 0  9998
2 36411   1.3454  82.4955 0005192  53.8075 165.8685  1.00268267 59894
COMS 1                  
1 36744U 10032A   26193.41501745 -.00000249  00000+0  00000+0 0  9992
2 36744   4.8673  75.0515 0011250  14.7069 323.0598  0.99168607 51331
FENGYUN 3B              
1 37214U 10059A   26193.91637041  .00000153  00000+0  10245-3 0  9997
2 37214  98.9615 240.0379 0023093 112.7848  11.9301 14.14847265811063
SUOMI NPP               
1 37849U 11061A   26193.85645479  .00000011  00000+0  26468-4 0  9990
2 37849  98.7956 134.5579 0000650 228.5544 131.5576 14.19522337762080
METEOSAT-10 (MSG-3)     
1 38552U 12035B   26193.77687463 -.00000012  00000+0  00000+0 0  9995
2 38552   4.7299  60.8910 0001080  17.5629 131.9395  1.00270301 51112
METOP-B                 
1 38771U 12049A   26193.81189867  .00000052  00000+0  43532-4 0  9998
2 38771  98.6491 244.7981 0001061 270.2000  89.9056 14.21445959716903
INSAT-3D                
1 39216U 13038B   26193.73120904 -.00000341  00000+0  00000+0 0  9990
2 39216   1.9893  82.2177 0000505  85.6004 155.5531  1.00269581 47337
FENGYUN 3C              
1 39260U 13052A   26193.91026020  .00000029  00000+0  35722-4 0  9995
2 39260  98.4996 166.6062 0013776 313.0045  46.9975 14.15760479662204
METEOR-M 2              
1 40069U 14037A   26193.90828465  .00000191  00000+0  10640-3 0  9991
2 40069  98.5123 168.7372 0005281 334.3901  25.7015 14.21469489622976
HIMAWARI-8              
1 40267U 14060A   26193.80465417 -.00000276  00000+0  00000+0 0  9990
2 40267   0.0183 317.4854 0001044 212.1587 191.3878  1.00272219 43019
FENGYUN 2G              
1 40367U 14090A   26193.89653637 -.00000304  00000+0  00000+0 0  9998
2 40367   5.7002  72.5005 0004369 152.6666 127.6317  1.00261037 42259
METEOSAT-11 (MSG-4)     
1 40732U 15034A   26193.79975477  .00000058  00000+0  00000+0 0  9996
2 40732   3.2634  70.9493 0002232 353.3384 163.5584  1.00271113  7472
ELEKTRO-L 2             
1 41105U 15074A   26193.41753080 -.00000122  00000+0  00000+0 0  9991
2 41105   6.7537  70.2096 0000935 216.0693 139.8337  1.00272262 38758
SENTINEL-3A             
1 41335U 16011A   26193.81396524  .00000043  00000+0  35880-4 0  9998
2 41335  98.6238 260.8281 0001371  90.9122 269.2216 14.26739357541719
INSAT-3DR               
1 41752U 16054A   26193.86275079 -.00000078  00000+0  00000+0 0  9994
2 41752   0.0638  88.7689 0010623 181.1963  45.3759  1.00270666 36072
HIMAWARI-9              
1 41836U 16064A   26193.80474082 -.00000276  00000+0  00000+0 0  9997
2 41836   0.0065 112.0078 0002252  66.6987 182.4418  1.00271255 35466
GOES 16                 
1 41866U 16071A   26193.61354087 -.00000091  00000+0  00000+0 0  9994
2 41866   0.3971  85.4987 0000527  99.9836 221.2050  1.00270869 35357
FENGYUN 4A              
1 41882U 16077A   26193.87264568 -.00000360  00000+0  00000+0 0  9999
2 41882   2.3842  79.9926 0008495 159.3753 129.3116  1.00269406 35183
CYGFM05                 
1 41884U 16078A   26193.82263522  .00018211  00000+0  23697-3 0  9990
2 41884  34.9568  90.6899 0006365  13.4125 346.6768 15.57780446532758
CYGFM04                 
1 41885U 16078B   26193.77470361  .00025020  00000+0  26629-3 0  9990
2 41885  34.9324  57.3697 0004519  56.6007 303.5151 15.62974121533000
CYGFM02                 
1 41886U 16078C   26193.78809455  .00030926  00000+0  28871-3 0  9994
2 41886  34.9407  51.0341 0005196  60.8319 299.2927 15.66232029533184
CYGFM01                 
1 41887U 16078D   26193.79985441  .00018929  00000+0  23968-3 0  9997
2 41887  34.9396  91.6862 0006473   6.8112 353.2699 15.58495529532701
CYGFM08                 
1 41888U 16078E   26193.77788971  .00022122  00000+0  25080-3 0  9992
2 41888  34.9433  70.7131 0006522  42.9221 317.2013 15.61358705532975
CYGFM07                 
1 41890U 16078G   26193.79930264  .00022414  00000+0  25311-3 0  9992
2 41890  34.9449  58.8897 0004883  57.1520 302.9675 15.61470113533007
CYGFM03                 
1 41891U 16078H   26193.83440933  .00022562  00000+0  25489-3 0  9997
2 41891  34.9405  60.5851 0004853  41.0484 319.0607 15.61458177532984
